[{"OBJECT_NAME":"STARLINK-31245","OBJECT_ID":"2024-020R","EPOCH":"2026-01-01T00:33:16.491456","MEAN_MOTION":15.30182061,"ECCENTRICITY":0.00012669,"INCLINATION":53.1597,"RA_OF_ASC_NODE":235.5775,"ARG_OF_PERICENTER":102.5976,"MEAN_ANOMALY":257.5166,"EPHEMERIS_TYPE":0,"CLASSIFICATION_TYPE":"U","NORAD_CAT_ID":58891,"ELEMENT_SET_NO":999,"REV_AT_EPOCH":10944,"BSTAR":-8.47991e-7,"MEAN_MOTION_DOT":-3.84e-6,"MEAN_MOTION_DDOT":0},{"OBJECT_NAME":"STARLINK-31254","OBJECT_ID":"2024-020S","EPOCH":"2026-01-01T16:00:00.999936","MEAN_MOTION":15.90640541,"ECCENTRICITY":0.00141794,"INCLINATION":53.1346,"RA_OF_ASC_NODE":256.6703,"ARG_OF_PERICENTER":139.6273,"MEAN_ANOMALY":294.8687,"EPHEMERIS_TYPE":0,"CLASSIFICATION_TYPE":"U","NORAD_CAT_ID":58892,"ELEMENT_SET_NO":999,"REV_AT_EPOCH":597,"BSTAR":0.0015236956,"MEAN_MOTION_DOT":0.0048361,"MEAN_MOTION_DDOT":0.00010023491},{"OBJECT_NAME":"STARLINK-31255","OBJECT_ID":"2024-020T","EPOCH":"2025-12-31T22:00:19.253664","MEAN_MOTION":15.30190049,"ECCENTRICITY":9.44e-5,"INCLINATION":53.1598,"RA_OF_ASC_NODE":277.2975,"ARG_OF_PERICENTER":80.8203,"MEAN_ANOMALY":279.2904,"EPHEMERIS_TYPE":0,"CLASSIFICATION_TYPE":"U","NORAD_CAT_ID":58893,"ELEMENT_SET_NO":999,"REV_AT_EPOCH":10769,"BSTAR":8.0367e-5,"MEAN_MOTION_DOT":2.021e-5,"MEAN_MOTION_DDOT":0},{"OBJECT_NAME":"STARLINK-31243","OBJECT_ID":"2024-020U","EPOCH":"2025-12-31T22:04:54.128352","MEAN_MOTION":15.30171209,"ECCENTRICITY":0.0001841,"INCLINATION":53.1576,"RA_OF_ASC_NODE":277.3167,"ARG_OF_PERICENTER":132.6481,"MEAN_ANOMALY":227.4675,"EPHEMERIS_TYPE":0,"CLASSIFICATION_TYPE":"U","NORAD_CAT_ID":58894,"ELEMENT_SET_NO":999,"REV_AT_EPOCH":10769,"BSTAR":0.00011281,"MEAN_MOTION_DOT":2.98e-5,"MEAN_MOTION_DDOT":0},{"OBJECT_NAME":"STARLINK-31218","OBJECT_ID":"2024-020V","EPOCH":"2025-12-31T23:43:29.690976","MEAN_MOTION":15.30190909,"ECCENTRICITY":0.00010064,"INCLINATION":53.1605,"RA_OF_ASC_NODE":277.0333,"ARG_OF_PERICENTER":81.6324,"MEAN_ANOMALY":278.479,"EPHEMERIS_TYPE":0,"CLASSIFICATION_TYPE":"U","NORAD_CAT_ID":58895,"ELEMENT_SET_NO":999,"REV_AT_EPOCH":10770,"BSTAR":5.4722239e-5,"MEAN_MOTION_DOT":1.262e-5,"MEAN_MOTION_DDOT":0},{"OBJECT_NAME":"STARLINK-31190","OBJECT_ID":"2024-020X","EPOCH":"2025-12-31T23:54:07.792128","MEAN_MOTION":15.30185831,"ECCENTRICITY":0.00013172,"INCLINATION":53.1605,"RA_OF_ASC_NODE":277.0783,"ARG_OF_PERICENTER":95.6384,"MEAN_ANOMALY":264.4767,"EPHEMERIS_TYPE":0,"CLASSIFICATION_TYPE":"U","NORAD_CAT_ID":58897,"ELEMENT_SET_NO":999,"REV_AT_EPOCH":10770,"BSTAR":7.2763976e-5,"MEAN_MOTION_DOT":1.796e-5,"MEAN_MOTION_DDOT":0},{"OBJECT_NAME":"STARLINK-31317","OBJECT_ID":"2024-027A","EPOCH":"2026-01-01T02:43:09.577920","MEAN_MOTION":15.30183281,"ECCENTRICITY":8.309e-5,"INCLINATION":53.1602,"RA_OF_ASC_NODE":263.4001,"ARG_OF_PERICENTER":92.3839,"MEAN_ANOMALY":267.7257,"EPHEMERIS_TYPE":0,"CLASSIFICATION_TYPE":"U","NORAD_CAT_ID":58931,"ELEMENT_SET_NO":999,"REV_AT_EPOCH":10682,"BSTAR":6.7381817e-5,"MEAN_MOTION_DOT":1.636e-5,"MEAN_MOTION_DDOT":0},{"OBJECT_NAME":"STARLINK-31378","OBJECT_ID":"2024-027B","EPOCH":"2025-12-31T23:39:38.474208","MEAN_MOTION":15.30171014,"ECCENTRICITY":0.00015825,"INCLINATION":53.1612,"RA_OF_ASC_NODE":264.0223,"ARG_OF_PERICENTER":84.7393,"MEAN_ANOMALY":275.3788,"EPHEMERIS_TYPE":0,"CLASSIFICATION_TYPE":"U","NORAD_CAT_ID":58932,"ELEMENT_SET_NO":999,"REV_AT_EPOCH":10696,"BSTAR":1.7621225e-5,"MEAN_MOTION_DOT":1.62e-6,"MEAN_MOTION_DDOT":0},{"OBJECT_NAME":"STARLINK-31350","OBJECT_ID":"2024-027C","EPOCH":"2025-12-31T21:51:52.056288","MEAN_MOTION":15.30193797,"ECCENTRICITY":0.0001252,"INCLINATION":53.1603,"RA_OF_ASC_NODE":264.2698,"ARG_OF_PERICENTER":90.942,"MEAN_ANOMALY":269.1724,"EPHEMERIS_TYPE":0,"CLASSIFICATION_TYPE":"U","NORAD_CAT_ID":58933,"ELEMENT_SET_NO":999,"REV_AT_EPOCH":10695,"BSTAR":0.00013369,"MEAN_MOTION_DOT":3.601e-5,"MEAN_MOTION_DDOT":0},{"OBJECT_NAME":"STARLINK-31337","OBJECT_ID":"2024-027D","EPOCH":"2026-01-01T02:29:29.038848","MEAN_MOTION":15.30186221,"ECCENTRICITY":9.276e-5,"INCLINATION":53.1598,"RA_OF_ASC_NODE":263.3407,"ARG_OF_PERICENTER":107.6347,"MEAN_ANOMALY":252.4755,"EPHEMERIS_TYPE":0,"CLASSIFICATION_TYPE":"U","NORAD_CAT_ID":58934,"ELEMENT_SET_NO":999,"REV_AT_EPOCH":10698,"BSTAR":-2.1044851e-5,"MEAN_MOTION_DOT":-9.82e-6,"MEAN_MOTION_DDOT":0},{"OBJECT_NAME":"STARLINK-31362","OBJECT_ID":"2024-027E","EPOCH":"2026-01-01T03:37:52.548960","MEAN_MOTION":15.30182727,"ECCENTRICITY":0.00011927,"INCLINATION":53.1592,"RA_OF_ASC_NODE":263.6306,"ARG_OF_PERICENTER":108.5886,"MEAN_ANOMALY":251.5245,"EPHEMERIS_TYPE":0,"CLASSIFICATION_TYPE":"U","NORAD_CAT_ID":58935,"ELEMENT_SET_NO":999,"REV_AT_EPOCH":10698,"BSTAR":-7.1363308e-5,"MEAN_MOTION_DOT":-2.471e-5,"MEAN_MOTION_DDOT":0},{"OBJECT_NAME":"STARLINK-31383","OBJECT_ID":"2024-027F","EPOCH":"2025-12-31T21:20:07.569600","MEAN_MOTION":15.30199071,"ECCENTRICITY":0.0001144,"INCLINATION":53.1596,"RA_OF_ASC_NODE":264.8426,"ARG_OF_PERICENTER":101.2301,"MEAN_ANOMALY":258.8828,"EPHEMERIS_TYPE":0,"CLASSIFICATION_TYPE":"U","NORAD_CAT_ID":58936,"ELEMENT_SET_NO":999,"REV_AT_EPOCH":10694,"BSTAR":4.833e-5,"MEAN_MOTION_DOT":1.072e-5,"MEAN_MOTION_DDOT":0},{"OBJECT_NAME":"STARLINK-31390","OBJECT_ID":"2024-027G","EPOCH":"2026-01-01T00:22:09.467040","MEAN_MOTION":15.30189316,"ECCENTRICITY":0.00010033,"INCLINATION":53.1594,"RA_OF_ASC_NODE":264.2097,"ARG_OF_PERICENTER":69.7006,"MEAN_ANOMALY":290.4103,"EPHEMERIS_TYPE":0,"CLASSIFICATION_TYPE":"U","NORAD_CAT_ID":58937,"ELEMENT_SET_NO":999,"REV_AT_EPOCH":10696,"BSTAR":0.00010245787,"MEAN_MOTION_DOT":2.676e-5,"MEAN_MOTION_DDOT":0},{"OBJECT_NAME":"STARLINK-31377","OBJECT_ID":"2024-027H","EPOCH":"2026-01-01T00:26:43.153728","MEAN_MOTION":15.3018865,"ECCENTRICITY":0.00010301,"INCLINATION":53.1613,"RA_OF_ASC_NODE":264.2271,"ARG_OF_PERICENTER":84.1907,"MEAN_ANOMALY":275.9211,"EPHEMERIS_TYPE":0,"CLASSIFICATION_TYPE":"U","NORAD_CAT_ID":58938,"ELEMENT_SET_NO":999,"REV_AT_EPOCH":10696,"BSTAR":3.9287562e-5,"MEAN_MOTION_DOT":8.04e-6,"MEAN_MOTION_DDOT":0},{"OBJECT_NAME":"STARLINK-31372","OBJECT_ID":"2024-027J","EPOCH":"2026-01-01T14:24:04.663008","MEAN_MOTION":15.30196015,"ECCENTRICITY":0.00012883,"INCLINATION":53.1575,"RA_OF_ASC_NODE":261.4579,"ARG_OF_PERICENTER":97.032,"MEAN_ANOMALY":263.0827,"EPHEMERIS_TYPE":0,"CLASSIFICATION_TYPE":"U","NORAD_CAT_ID":58939,"ELEMENT_SET_NO":999,"REV_AT_EPOCH":10705,"BSTAR":0.00020235692,"MEAN_MOTION_DOT":5.638e-5,"MEAN_MOTION_DDOT":0},{"OBJECT_NAME":"STARLINK-31371","OBJECT_ID":"2024-027K","EPOCH":"2026-01-01T03:24:11.367936","MEAN_MOTION":15.30188639,"ECCENTRICITY":0.00011417,"INCLINATION":53.1577,"RA_OF_ASC_NODE":263.5741,"ARG_OF_PERICENTER":105.4791,"MEAN_ANOMALY":254.6336,"EPHEMERIS_TYPE":0,"CLASSIFICATION_TYPE":"U","NORAD_CAT_ID":58940,"ELEMENT_SET_NO":999,"REV_AT_EPOCH":10698,"BSTAR":0.00010561996,"MEAN_MOTION_DOT":2.769e-5,"MEAN_MOTION_DDOT":0}]
