STARLINK-31245          
1 58891U 24020R   26001.02310754 -.00000384  00000+0 -84799-6 0  9999
2 58891  53.1597 235.5775 0001266 102.5976 257.5166 15.30182061109449
STARLINK-31254          
1 58892U 24020S   26001.66667824  .00483610  10023-3  15237-2 0  9995
2 58892  53.1346 256.6703 0014179 139.6273 294.8687 15.90640541  5978
STARLINK-31255          
1 58893U 24020T   25365.91688951  .00002021  00000+0  80367-4 0  9991
2 58893  53.1598 277.2975 0000944  80.8203 279.2904 15.30190049107691
STARLINK-31243          
1 58894U 24020U   25365.92007093  .00002980  00000+0  11281-3 0  9997
2 58894  53.1576 277.3167 0001841 132.6481 227.4675 15.30171209107690
STARLINK-31218          
1 58895U 24020V   25365.98853809  .00001262  00000+0  54722-4 0  9998
2 58895  53.1605 277.0333 0001006  81.6324 278.4790 15.30190909107702
STARLINK-31190          
1 58897U 24020X   25365.99592352  .00001796  00000+0  72764-4 0  9992
2 58897  53.1605 277.0783 0001317  95.6384 264.4767 15.30185831107706
STARLINK-31317          
1 58931U 24027A   26001.11330530  .00001636  00000+0  67382-4 0  9991
2 58931  53.1602 263.4001 0000830  92.3839 267.7257 15.30183281106821
STARLINK-31378          
1 58932U 24027B   25365.98586197  .00000162  00000+0  17621-4 0  9995
2 58932  53.1612 264.0223 0001582  84.7393 275.3788 15.30171014106961
STARLINK-31350          
1 58933U 24027C   25365.91101917  .00003601  00000+0  13369-3 0  9997
2 58933  53.1603 264.2698 0001252  90.9420 269.1724 15.30193797106956
STARLINK-31337          
1 58934U 24027D   26001.10380832 -.00000982  00000+0 -21045-4 0  9994
2 58934  53.1598 263.3407 0000927 107.6347 252.4755 15.30186221106986
STARLINK-31362          
1 58935U 24027E   26001.15130265 -.00002471  00000+0 -71363-4 0  9996
2 58935  53.1592 263.6306 0001192 108.5886 251.5245 15.30182727106986
STARLINK-31383          
1 58936U 24027F   25365.88897650  .00001072  00000+0  48330-4 0  9999
2 58936  53.1596 264.8426 0001144 101.2301 258.8828 15.30199071106949
STARLINK-31390          
1 58937U 24027G   26001.01538735  .00002676  00000+0  10246-3 0  9994
2 58937  53.1594 264.2097 0001003  69.7006 290.4103 15.30189316106961
STARLINK-31377          
1 58938U 24027H   26001.01855502  .00000804  00000+0  39288-4 0  9998
2 58938  53.1613 264.2271 0001030  84.1907 275.9211 15.30188650106967
STARLINK-31372          
1 58939U 24027J   26001.60005397  .00005638  00000+0  20236-3 0  9995
2 58939  53.1575 261.4579 0001288  97.0320 263.0827 15.30196015107058
STARLINK-31371          
1 58940U 24027K   26001.14179824  .00002769  00000+0  10562-3 0  9996
2 58940  53.1577 263.5741 0001141 105.4791 254.6336 15.30188639106985
